[
    {
        "Altitude(m)": 607910.9894807544,
        "Argument of Periapsis(deg)": 0.0,
        "Eccentricity": 0.0,
        "Inclination(deg)": 60.0,
        "Latitude(deg)": -14.292833959721328,
        "Longitude(deg)": 118.44264208807977,
        "Mean Anomaly(deg)": 196.36359999999996,
        "RAAN(deg)": 30.0,
        "Satellite Name": "Test1 144",
        "Satellite Number": 144,
        "Semi-Major Axis(m)": 6980739.136638005,
        "Time(s)": 0
    },
    {
        "Altitude(m)": 608060.2224296198,
        "Argument of Periapsis(deg)": 0.00010418945913296404,
        "Eccentricity": 0.0,
        "Inclination(deg)": 60.0,
        "Latitude(deg)": -14.826495477798487,
        "Longitude(deg)": 118.73125117089897,
        "Mean Anomaly(deg)": 196.9837061454618,
        "RAAN(deg)": 29.99957995086026,
        "Satellite Name": "Test1 144",
        "Satellite Number": 144,
        "Semi-Major Axis(m)": 6980739.136638005,
        "Time(s)": 10
    },
    {
        "Altitude(m)": 608211.885594227,
        "Argument of Periapsis(deg)": 0.0002083789182659281,
        "Eccentricity": 0.0,
        "Inclination(deg)": 60.0,
        "Latitude(deg)": -15.359640780154589,
        "Longitude(deg)": 119.02146903159442,
        "Mean Anomaly(deg)": 197.60381229092366,
        "RAAN(deg)": 29.999159901720517,
        "Satellite Name": "Test1 144",
        "Satellite Number": 144,
        "Semi-Major Axis(m)": 6980739.136638005,
        "Time(s)": 20
    },
    {
        "Altitude(m)": 608365.9308934399,
        "Argument of Periapsis(deg)": 0.00031256837739889213,
        "Eccentricity": 0.0,
        "Inclination(deg)": 60.0,
        "Latitude(deg)": -15.892248657711828,
        "Longitude(deg)": 119.31336313742725,
        "Mean Anomaly(deg)": 198.22391843638547,
        "RAAN(deg)": 29.99873985258077,
        "Satellite Name": "Test1 144",
        "Satellite Number": 144,
        "Semi-Major Axis(m)": 6980739.136638005,
        "Time(s)": 30
    },
    {
        "Altitude(m)": 608522.309048581,
        "Argument of Periapsis(deg)": 0.0004167578365318562,
        "Eccentricity": 0.0,
        "Inclination(deg)": 60.0,
        "Latitude(deg)": -16.424297569136087,
        "Longitude(deg)": 119.60700247465986,
        "Mean Anomaly(deg)": 198.8440245818473,
        "RAAN(deg)": 29.998319803441028,
        "Satellite Name": "Test1 144",
        "Satellite Number": 144,
        "Semi-Major Axis(m)": 6980739.136638005,
        "Time(s)": 40
    },
    {
        "Altitude(m)": 608680.969604741,
        "Argument of Periapsis(deg)": 0.0005209472956648203,
        "Eccentricity": 0.0,
        "Inclination(deg)": 60.0,
        "Latitude(deg)": -16.955765624815598,
        "Longitude(deg)": 119.9024565838853,
        "Mean Anomaly(deg)": 199.46413072730914,
        "RAAN(deg)": 29.997899754301283,
        "Satellite Name": "Test1 144",
        "Satellite Number": 144,
        "Semi-Major Axis(m)": 6980739.136638005,
        "Time(s)": 50
    },
    {
        "Altitude(m)": 608841.8609526382,
        "Argument of Periapsis(deg)": 0.0006251367547977843,
        "Eccentricity": 0.0,
        "Inclination(deg)": 60.0,
        "Latitude(deg)": -17.486630570360184,
        "Longitude(deg)": 120.1997961090668,
        "Mean Anomaly(deg)": 200.084236872771,
        "RAAN(deg)": 29.99747970516154,
        "Satellite Name": "Test1 144",
        "Satellite Number": 144,
        "Semi-Major Axis(m)": 6980739.136638005,
        "Time(s)": 60
    },
    {
        "Altitude(m)": 609004.930351052,
        "Argument of Periapsis(deg)": 0.0007293262139307483,
        "Eccentricity": 0.0,
        "Inclination(deg)": 60.0,
        "Latitude(deg)": -18.016869769597296,
        "Longitude(deg)": 120.49909334744054,
        "Mean Anomaly(deg)": 200.7043430182328,
        "RAAN(deg)": 29.997059656021797,
        "Satellite Name": "Test1 144",
        "Satellite Number": 144,
        "Semi-Major Axis(m)": 6980739.136638005,
        "Time(s)": 70
    },
    {
        "Altitude(m)": 609170.1239497673,
        "Argument of Periapsis(deg)": 0.0008335156730637124,
        "Eccentricity": 0.0,
        "Inclination(deg)": 60.0,
        "Latitude(deg)": -18.546460187039166,
        "Longitude(deg)": 120.80042128743123,
        "Mean Anomaly(deg)": 201.32444916369465,
        "RAAN(deg)": 29.996639606882056,
        "Satellite Name": "Test1 144",
        "Satellite Number": 144,
        "Semi-Major Axis(m)": 6980739.136638005,
        "Time(s)": 80
    },
    {
        "Altitude(m)": 609337.3868130674,
        "Argument of Periapsis(deg)": 0.0009377051321966765,
        "Eccentricity": 0.0,
        "Inclination(deg)": 60.0,
        "Latitude(deg)": -19.075378369799303,
        "Longitude(deg)": 121.10385416034809,
        "Mean Anomaly(deg)": 201.94455530915644,
        "RAAN(deg)": 29.996219557742315,
        "Satellite Name": "Test1 144",
        "Satellite Number": 144,
        "Semi-Major Axis(m)": 6980739.136638005,
        "Time(s)": 90
    },
    {
        "Altitude(m)": 609506.6629437389,
        "Argument of Periapsis(deg)": 0.0010418945913296407,
        "Eccentricity": 0.0,
        "Inclination(deg)": 60.0,
        "Latitude(deg)": -19.60360042893247,
        "Longitude(deg)": 121.40946799300971,
        "Mean Anomaly(deg)": 202.56466145461826,
        "RAAN(deg)": 29.995799508602573,
        "Satellite Name": "Test1 144",
        "Satellite Number": 144,
        "Semi-Major Axis(m)": 6980739.136638005,
        "Time(s)": 100
    },
    {
        "Altitude(m)": 609677.8953075904,
        "Argument of Periapsis(deg)": 0.0011460840504626045,
        "Eccentricity": 0.0,
        "Inclination(deg)": 60.0,
        "Latitude(deg)": -20.131102020169894,
        "Longitude(deg)": 121.71733964844255,
        "Mean Anomaly(deg)": 203.1847676000801,
        "RAAN(deg)": 29.99537945946283,
        "Satellite Name": "Test1 144",
        "Satellite Number": 144,
        "Semi-Major Axis(m)": 6980739.136638005,
        "Time(s)": 110
    },
    {
        "Altitude(m)": 609851.0258584204,
        "Argument of Periapsis(deg)": 0.0012502735095955685,
        "Eccentricity": 0.0,
        "Inclination(deg)": 60.0,
        "Latitude(deg)": -20.657858324026577,
        "Longitude(deg)": 122.0275473804174,
        "Mean Anomaly(deg)": 203.80487374554195,
        "RAAN(deg)": 29.994959410323087,
        "Satellite Name": "Test1 144",
        "Satellite Number": 144,
        "Semi-Major Axis(m)": 6980739.136638005,
        "Time(s)": 120
    },
    {
        "Altitude(m)": 610025.9955635332,
        "Argument of Periapsis(deg)": 0.0013544629687285324,
        "Eccentricity": 0.0,
        "Inclination(deg)": 60.0,
        "Latitude(deg)": -21.183844025250902,
        "Longitude(deg)": 122.34017138896314,
        "Mean Anomaly(deg)": 204.42497989100374,
        "RAAN(deg)": 29.994539361183346,
        "Satellite Name": "Test1 144",
        "Satellite Number": 144,
        "Semi-Major Axis(m)": 6980739.136638005,
        "Time(s)": 130
    },
    {
        "Altitude(m)": 610202.7444296413,
        "Argument of Periapsis(deg)": 0.0014586524278614966,
        "Eccentricity": 0.0,
        "Inclination(deg)": 60.0,
        "Latitude(deg)": -21.70903329158791,
        "Longitude(deg)": 122.65529286399999,
        "Mean Anomaly(deg)": 205.04508603646565,
        "RAAN(deg)": 29.994119312043605,
        "Satellite Name": "Test1 144",
        "Satellite Number": 144,
        "Semi-Major Axis(m)": 6980739.136638005,
        "Time(s)": 140
    },
    {
        "Altitude(m)": 610381.2115292801,
        "Argument of Periapsis(deg)": 0.0015628418869944607,
        "Eccentricity": 0.0,
        "Inclination(deg)": 60.0,
        "Latitude(deg)": -22.233399751828795,
        "Longitude(deg)": 122.97299454284484,
        "Mean Anomaly(deg)": 205.6651921819275,
        "RAAN(deg)": 29.993699262903853,
        "Satellite Name": "Test1 144",
        "Satellite Number": 144,
        "Semi-Major Axis(m)": 6980739.136638005,
        "Time(s)": 150
    },
    {
        "Altitude(m)": 610561.3350276203,
        "Argument of Periapsis(deg)": 0.0016670313461274247,
        "Eccentricity": 0.0,
        "Inclination(deg)": 60.0,
        "Latitude(deg)": -22.756916473115684,
        "Longitude(deg)": 123.29336126872259,
        "Mean Anomaly(deg)": 206.28529832738926,
        "RAAN(deg)": 29.99327921376411,
        "Satellite Name": "Test1 144",
        "Satellite Number": 144,
        "Semi-Major Axis(m)": 6980739.136638005,
        "Time(s)": 160
    },
    {
        "Altitude(m)": 610743.0522097234,
        "Argument of Periapsis(deg)": 0.0017712208052603888,
        "Eccentricity": 0.0,
        "Inclination(deg)": 60.0,
        "Latitude(deg)": -23.27955593747017,
        "Longitude(deg)": 123.61647903741446,
        "Mean Anomaly(deg)": 206.9054044728511,
        "RAAN(deg)": 29.99285916462437,
        "Satellite Name": "Test1 144",
        "Satellite Number": 144,
        "Semi-Major Axis(m)": 6980739.136638005,
        "Time(s)": 170
    },
    {
        "Altitude(m)": 610926.2995082057,
        "Argument of Periapsis(deg)": 0.001875410264393353,
        "Eccentricity": 0.0,
        "Inclination(deg)": 60.0,
        "Latitude(deg)": -23.801290017515267,
        "Longitude(deg)": 123.94243555778478,
        "Mean Anomaly(deg)": 207.52551061831295,
        "RAAN(deg)": 29.99243911548463,
        "Satellite Name": "Test1 144",
        "Satellite Number": 144,
        "Semi-Major Axis(m)": 6980739.136638005,
        "Time(s)": 180
    },
    {
        "Altitude(m)": 611111.0125312762,
        "Argument of Periapsis(deg)": 0.0019795997235263173,
        "Eccentricity": 0.0,
        "Inclination(deg)": 60.0,
        "Latitude(deg)": -24.32208995135814,
        "Longitude(deg)": 124.2713208133094,
        "Mean Anomaly(deg)": 208.1456167637748,
        "RAAN(deg)": 29.992019066344888,
        "Satellite Name": "Test1 144",
        "Satellite Number": 144,
        "Semi-Major Axis(m)": 6980739.136638005,
        "Time(s)": 190
    }
]